ORBCOMM FM05            
1 25117U 97084F   25223.14206584  .00001269  00000+0  39265-3 0  9993
2 25117  45.0148 104.1677 0002057 103.7295 256.3785 14.46076500448563
ORBCOMM FM03            
1 25158U 98007B   25223.00360255  .00000860  00000+0  34694-3 0  9992
2 25158 107.9676 248.2218 0044283 155.1790 205.1492 14.34605336431900
ORBCOMM FM04            
1 25159U 98007C   25222.97841185  .00000917  00000+0  36582-3 0  9995
2 25159 107.9665 251.4289 0039990 152.8408 207.4834 14.34850206432085
ORBCOMM FM17            
1 25413U 98046A   25223.11388812  .00000784  00000+0  32087-3 0  9999
2 25413  44.9958 358.3636 0003550 148.8738 211.2320 14.35178743411068
ORBCOMM FM18            
1 25414U 98046B   25223.21082515  .00000874  00000+0  32850-3 0  9990
2 25414  44.9927 273.8295 0006459 218.6061 141.4326 14.38667143412176
ORBCOMM FM19            
1 25415U 98046C   25223.24924640  .00000881  00000+0  33192-3 0  9996
2 25415  44.9939 275.7326 0005182 218.8047 218.1448 14.38478224412137
